ONEWEB-0196             
1 48218U 21031J   25345.96730365 -.00000016  00000+0 -77318-4 0  9996
2 48218  87.8992 327.0092 0001649  81.8571 278.2746 13.14503845223637
ONEWEB-0183             
1 48219U 21031K   25346.01804943  .00000173  00000+0  43262-3 0  9990
2 48219  87.8980 327.0033 0001640  91.8644 268.2674 13.14503066223738
ONEWEB-0185             
1 48220U 21031L   25345.96809608 -.00000079  00000+0 -24820-3 0  9994
2 48220  87.9005 326.9893 0001365  91.9347 268.1939 13.14503768223659
ONEWEB-0187             
1 48221U 21031M   25345.94812691  .00000242  00000+0  61790-3 0  9996
2 48221  87.8988 327.0347 0001468  82.5376 277.5920 13.14504774223660
ONEWEB-0192             
1 48222U 21031N   25345.99426089 -.00000081  00000+0 -25206-3 0  9999
2 48222  87.8985 327.0156 0001779  82.2456 277.8875 13.14503632223582
ONEWEB-0219             
1 48223U 21031P   25345.97363944 -.00000133  00000+0 -39325-3 0  9993
2 48223  87.8991 326.9980 0001453  86.2958 273.8338 13.14503334223784
ONEWEB-0202             
1 48224U 21031Q   25345.95460447  .00000167  00000+0  41705-3 0  9998
2 48224  87.8986 327.0134 0001719  60.2597 299.8703 13.14504761223765
ONEWEB-0204             
1 48225U 21031R   25345.98870678 -.00000178  00000+0 -51348-3 0  9991
2 48225  87.8991 326.9966 0001739  95.5360 264.5968 13.14504595223660
